[{"OBJECT_NAME":"HORS 2","OBJECT_ID":"2023-091AG","EPOCH":"2026-03-09T22:11:34.810944","MEAN_MOTION":15.2928008,"ECCENTRICITY":0.00098173,"INCLINATION":97.5195,"RA_OF_ASC_NODE":134.7443,"ARG_OF_PERICENTER":79.3164,"MEAN_ANOMALY":280.9181,"EPHEMERIS_TYPE":0,"CLASSIFICATION_TYPE":"U","NORAD_CAT_ID":57196,"ELEMENT_SET_NO":999,"REV_AT_EPOCH":14934,"BSTAR":0.00059338338,"MEAN_MOTION_DOT":0.00016821,"MEAN_MOTION_DDOT":0},{"OBJECT_NAME":"STARLINK-36539","OBJECT_ID":"2026-008B","EPOCH":"2026-03-09T09:46:18.249888","MEAN_MOTION":15.27589101,"ECCENTRICITY":0.00040482,"INCLINATION":43.0027,"RA_OF_ASC_NODE":207.2864,"ARG_OF_PERICENTER":291.88,"MEAN_ANOMALY":68.1621,"EPHEMERIS_TYPE":0,"CLASSIFICATION_TYPE":"U","NORAD_CAT_ID":67446,"ELEMENT_SET_NO":999,"REV_AT_EPOCH":952,"BSTAR":0.00096121986,"MEAN_MOTION_DOT":0.00026294,"MEAN_MOTION_DDOT":0}]
